SL-8 R/B                
1 11574U 79089B   26117.08852290  .00000221  00000+0  74789-4 0  9995
2 11574  74.0709   1.4525 0015587 164.9120 195.2505 14.42379783443087
SL-14 R/B               
1 11672U 80005B   26117.11588828  .00000586  00000+0  56630-4 0  9990
2 11672  82.5127 261.2833 0015797   7.7073 352.4386 14.90983070483706
SL-8 R/B                
1 12139U 81003B   26117.31117497  .00017326  00000+0  43124-3 0  9993
2 12139  82.9358 244.9887 0255647   9.7128 350.8907 15.12878261322023
SL-3 R/B                
1 12465U 81046B   26117.30453495  .00014136  00000+0  31637-3 0  9994
2 12465  81.2312 231.3085 0018537 207.6711 152.3548 15.43149513445925
SL-3 R/B                
1 12904U 81103B   26117.23635744  .00004880  00000+0  21292-3 0  9998
2 12904  81.1583 156.4711 0014312 121.2326 239.0310 15.21866721980618
SL-3 R/B                
1 13068U 82013B   26117.22606266  .00005601  00000+0  23964-3 0  9997
2 13068  81.1713 103.8546 0022481  19.8573 340.3528 15.22412094411739
SL-3 R/B                
1 13154U 82039B   26117.22270723  .00002037  00000+0  12175-3 0  9998
2 13154  81.1478 159.9757 0028548 159.0686 201.1715 15.10307099388966
SL-3 R/B                
1 13403U 82079B   26117.21817120  .00005477  00000+0  21459-3 0  9992
2 13403  81.1440 135.7541 0024096   5.3241 354.8243 15.25330065385097
SL-14 R/B               
1 13553U 82092B   26117.31658286  .00000510  00000+0  54382-4 0  9995
2 13553  82.5653  95.8985 0021420 136.5644 344.9746 14.86706893336157
SL-3 R/B                
1 13819U 83010B   26117.00931470  .00014581  00000+0  27928-3 0  9994
2 13819  81.1009 302.9299 0015268 236.6160 123.3625 15.47772499365419
SL-3 R/B                
1 14208U 83075B   26117.25691697  .00013359  00000+0  33941-3 0  9993
2 14208  97.6126 123.7165 0022737  59.2514 301.0966 15.39500806337623
COSMOS 1536             
1 14699U 84013A   26117.30240044  .00009043  00000+0  36550-3 0  9996
2 14699  82.5451  59.4933 0016184 108.8618 251.4377 15.24473996280022
SL-14 R/B               
1 14820U 84027B   26117.24266803  .00000451  00000+0  48682-4 0  9995
2 14820  82.5444 199.4853 0018311 167.9459 192.2200 14.86023853254847
SL-8 R/B                
1 15483U 85006B   26117.29481688  .00000215  00000+0  80050-4 0  9997
2 15483  74.0451 171.7137 0017196  73.0113 354.8242 14.37812512161011
SL-12 R/B(2)            
1 15772U 85042D   26117.10210108  .00000081  00000+0  57687-4 0  9996
2 15772  71.1094 345.4488 0033511  48.0148  65.7491 14.21995395121273
SL-14 R/B               
1 15945U 85069B   26117.07792879  .00000403  00000+0  42655-4 0  9990
2 15945  82.5272 339.4422 0019692  36.0022 324.2517 14.86478074180023
SL-16 R/B               
1 16182U 85097B   26117.23283138 -.00000214  00000+0 -83062-4 0  9995
2 16182  71.0045  38.3527 0008006 199.5230 312.7489 14.16605834 94104
