[{"OBJECT_NAME":"SL-8 R/B","OBJECT_ID":"1979-089B","EPOCH":"2026-04-27T02:07:28.378560","MEAN_MOTION":14.42379783,"ECCENTRICITY":0.00155879,"INCLINATION":74.0709,"RA_OF_ASC_NODE":1.4525,"ARG_OF_PERICENTER":164.912,"MEAN_ANOMALY":195.2505,"EPHEMERIS_TYPE":0,"CLASSIFICATION_TYPE":"U","NORAD_CAT_ID":11574,"ELEMENT_SET_NO":999,"REV_AT_EPOCH":44308,"BSTAR":7.4788709e-5,"MEAN_MOTION_DOT":2.21e-6,"MEAN_MOTION_DDOT":0},{"OBJECT_NAME":"SL-14 R/B","OBJECT_ID":"1980-005B","EPOCH":"2026-04-27T02:46:52.747392","MEAN_MOTION":14.9098307,"ECCENTRICITY":0.00157976,"INCLINATION":82.5127,"RA_OF_ASC_NODE":261.2833,"ARG_OF_PERICENTER":7.7073,"MEAN_ANOMALY":352.4386,"EPHEMERIS_TYPE":0,"CLASSIFICATION_TYPE":"U","NORAD_CAT_ID":11672,"ELEMENT_SET_NO":999,"REV_AT_EPOCH":48370,"BSTAR":5.663041e-5,"MEAN_MOTION_DOT":5.86e-6,"MEAN_MOTION_DDOT":0},{"OBJECT_NAME":"SL-8 R/B","OBJECT_ID":"1981-003B","EPOCH":"2026-04-27T07:28:05.517408","MEAN_MOTION":15.12878261,"ECCENTRICITY":0.02556471,"INCLINATION":82.9358,"RA_OF_ASC_NODE":244.9887,"ARG_OF_PERICENTER":9.7128,"MEAN_ANOMALY":350.8907,"EPHEMERIS_TYPE":0,"CLASSIFICATION_TYPE":"U","NORAD_CAT_ID":12139,"ELEMENT_SET_NO":999,"REV_AT_EPOCH":32202,"BSTAR":0.00043124247,"MEAN_MOTION_DOT":0.00017326,"MEAN_MOTION_DDOT":0},{"OBJECT_NAME":"SL-3 R/B","OBJECT_ID":"1981-046B","EPOCH":"2026-04-27T07:18:31.819680","MEAN_MOTION":15.43149513,"ECCENTRICITY":0.00185374,"INCLINATION":81.2312,"RA_OF_ASC_NODE":231.3085,"ARG_OF_PERICENTER":207.6711,"MEAN_ANOMALY":152.3548,"EPHEMERIS_TYPE":0,"CLASSIFICATION_TYPE":"U","NORAD_CAT_ID":12465,"ELEMENT_SET_NO":999,"REV_AT_EPOCH":44592,"BSTAR":0.00031637008,"MEAN_MOTION_DOT":0.00014136,"MEAN_MOTION_DDOT":0},{"OBJECT_NAME":"SL-3 R/B","OBJECT_ID":"1981-103B","EPOCH":"2026-04-27T05:40:21.282816","MEAN_MOTION":15.21866721,"ECCENTRICITY":0.00143129,"INCLINATION":81.1583,"RA_OF_ASC_NODE":156.4711,"ARG_OF_PERICENTER":121.2326,"MEAN_ANOMALY":239.031,"EPHEMERIS_TYPE":0,"CLASSIFICATION_TYPE":"U","NORAD_CAT_ID":12904,"ELEMENT_SET_NO":999,"REV_AT_EPOCH":98061,"BSTAR":0.00021291606,"MEAN_MOTION_DOT":4.88e-5,"MEAN_MOTION_DDOT":0},{"OBJECT_NAME":"SL-3 R/B","OBJECT_ID":"1982-013B","EPOCH":"2026-04-27T05:25:31.813824","MEAN_MOTION":15.22412094,"ECCENTRICITY":0.00224813,"INCLINATION":81.1713,"RA_OF_ASC_NODE":103.8546,"ARG_OF_PERICENTER":19.8573,"MEAN_ANOMALY":340.3528,"EPHEMERIS_TYPE":0,"CLASSIFICATION_TYPE":"U","NORAD_CAT_ID":13068,"ELEMENT_SET_NO":999,"REV_AT_EPOCH":41173,"BSTAR":0.00023964315,"MEAN_MOTION_DOT":5.601e-5,"MEAN_MOTION_DDOT":0},{"OBJECT_NAME":"SL-3 R/B","OBJECT_ID":"1982-039B","EPOCH":"2026-04-27T05:20:41.904672","MEAN_MOTION":15.10307099,"ECCENTRICITY":0.0028548,"INCLINATION":81.1478,"RA_OF_ASC_NODE":159.9757,"ARG_OF_PERICENTER":159.0686,"MEAN_ANOMALY":201.1715,"EPHEMERIS_TYPE":0,"CLASSIFICATION_TYPE":"U","NORAD_CAT_ID":13154,"ELEMENT_SET_NO":999,"REV_AT_EPOCH":38896,"BSTAR":0.00012175292,"MEAN_MOTION_DOT":2.037e-5,"MEAN_MOTION_DDOT":0},{"OBJECT_NAME":"SL-3 R/B","OBJECT_ID":"1982-079B","EPOCH":"2026-04-27T05:14:09.991680","MEAN_MOTION":15.25330065,"ECCENTRICITY":0.00240969,"INCLINATION":81.144,"RA_OF_ASC_NODE":135.7541,"ARG_OF_PERICENTER":5.3241,"MEAN_ANOMALY":354.8243,"EPHEMERIS_TYPE":0,"CLASSIFICATION_TYPE":"U","NORAD_CAT_ID":13403,"ELEMENT_SET_NO":999,"REV_AT_EPOCH":38509,"BSTAR":0.00021459338,"MEAN_MOTION_DOT":5.477e-5,"MEAN_MOTION_DDOT":0},{"OBJECT_NAME":"SL-14 R/B","OBJECT_ID":"1982-092B","EPOCH":"2026-04-27T07:35:52.759104","MEAN_MOTION":14.86706893,"ECCENTRICITY":0.00214208,"INCLINATION":82.5653,"RA_OF_ASC_NODE":95.8985,"ARG_OF_PERICENTER":136.5644,"MEAN_ANOMALY":344.9746,"EPHEMERIS_TYPE":0,"CLASSIFICATION_TYPE":"U","NORAD_CAT_ID":13553,"ELEMENT_SET_NO":999,"REV_AT_EPOCH":33615,"BSTAR":5.4382417e-5,"MEAN_MOTION_DOT":5.1e-6,"MEAN_MOTION_DDOT":0},{"OBJECT_NAME":"SL-3 R/B","OBJECT_ID":"1983-010B","EPOCH":"2026-04-27T00:13:24.790080","MEAN_MOTION":15.47772499,"ECCENTRICITY":0.00152689,"INCLINATION":81.1009,"RA_OF_ASC_NODE":302.9299,"ARG_OF_PERICENTER":236.616,"MEAN_ANOMALY":123.3625,"EPHEMERIS_TYPE":0,"CLASSIFICATION_TYPE":"U","NORAD_CAT_ID":13819,"ELEMENT_SET_NO":999,"REV_AT_EPOCH":36541,"BSTAR":0.00027927869,"MEAN_MOTION_DOT":0.00014581,"MEAN_MOTION_DDOT":0},{"OBJECT_NAME":"SL-3 R/B","OBJECT_ID":"1983-075B","EPOCH":"2026-04-27T06:09:57.626208","MEAN_MOTION":15.39500806,"ECCENTRICITY":0.00227374,"INCLINATION":97.6126,"RA_OF_ASC_NODE":123.7165,"ARG_OF_PERICENTER":59.2514,"MEAN_ANOMALY":301.0966,"EPHEMERIS_TYPE":0,"CLASSIFICATION_TYPE":"U","NORAD_CAT_ID":14208,"ELEMENT_SET_NO":999,"REV_AT_EPOCH":33762,"BSTAR":0.00033941101,"MEAN_MOTION_DOT":0.00013359,"MEAN_MOTION_DDOT":0},{"OBJECT_NAME":"COSMOS 1536","OBJECT_ID":"1984-013A","EPOCH":"2026-04-27T07:15:27.398016","MEAN_MOTION":15.24473996,"ECCENTRICITY":0.00161848,"INCLINATION":82.5451,"RA_OF_ASC_NODE":59.4933,"ARG_OF_PERICENTER":108.8618,"MEAN_ANOMALY":251.4377,"EPHEMERIS_TYPE":0,"CLASSIFICATION_TYPE":"U","NORAD_CAT_ID":14699,"ELEMENT_SET_NO":999,"REV_AT_EPOCH":28002,"BSTAR":0.00036550241,"MEAN_MOTION_DOT":9.043e-5,"MEAN_MOTION_DDOT":0},{"OBJECT_NAME":"SL-14 R/B","OBJECT_ID":"1984-027B","EPOCH":"2026-04-27T05:49:26.517792","MEAN_MOTION":14.86023853,"ECCENTRICITY":0.0018311,"INCLINATION":82.5444,"RA_OF_ASC_NODE":199.4853,"ARG_OF_PERICENTER":167.9459,"MEAN_ANOMALY":192.22,"EPHEMERIS_TYPE":0,"CLASSIFICATION_TYPE":"U","NORAD_CAT_ID":14820,"ELEMENT_SET_NO":999,"REV_AT_EPOCH":25484,"BSTAR":4.8682342e-5,"MEAN_MOTION_DOT":4.51e-6,"MEAN_MOTION_DDOT":0},{"OBJECT_NAME":"SL-8 R/B","OBJECT_ID":"1985-006B","EPOCH":"2026-04-27T07:04:32.178432","MEAN_MOTION":14.37812512,"ECCENTRICITY":0.00171969,"INCLINATION":74.0451,"RA_OF_ASC_NODE":171.7137,"ARG_OF_PERICENTER":73.0113,"MEAN_ANOMALY":354.8242,"EPHEMERIS_TYPE":0,"CLASSIFICATION_TYPE":"U","NORAD_CAT_ID":15483,"ELEMENT_SET_NO":999,"REV_AT_EPOCH":16101,"BSTAR":8.0049844e-5,"MEAN_MOTION_DOT":2.15e-6,"MEAN_MOTION_DDOT":0},{"OBJECT_NAME":"SL-12 R/B(2)","OBJECT_ID":"1985-042D","EPOCH":"2026-04-27T02:27:01.533312","MEAN_MOTION":14.21995395,"ECCENTRICITY":0.00335118,"INCLINATION":71.1094,"RA_OF_ASC_NODE":345.4488,"ARG_OF_PERICENTER":48.0148,"MEAN_ANOMALY":65.7491,"EPHEMERIS_TYPE":0,"CLASSIFICATION_TYPE":"U","NORAD_CAT_ID":15772,"ELEMENT_SET_NO":999,"REV_AT_EPOCH":12127,"BSTAR":5.7686755e-5,"MEAN_MOTION_DOT":8.1e-7,"MEAN_MOTION_DDOT":0},{"OBJECT_NAME":"SL-14 R/B","OBJECT_ID":"1985-069B","EPOCH":"2026-04-27T01:52:13.047456","MEAN_MOTION":14.86478074,"ECCENTRICITY":0.00196924,"INCLINATION":82.5272,"RA_OF_ASC_NODE":339.4422,"ARG_OF_PERICENTER":36.0022,"MEAN_ANOMALY":324.2517,"EPHEMERIS_TYPE":0,"CLASSIFICATION_TYPE":"U","NORAD_CAT_ID":15945,"ELEMENT_SET_NO":999,"REV_AT_EPOCH":18002,"BSTAR":4.2655068e-5,"MEAN_MOTION_DOT":4.03e-6,"MEAN_MOTION_DDOT":0},{"OBJECT_NAME":"SL-16 R/B","OBJECT_ID":"1985-097B","EPOCH":"2026-04-27T05:35:16.631232","MEAN_MOTION":14.16605834,"ECCENTRICITY":0.00080063,"INCLINATION":71.0045,"RA_OF_ASC_NODE":38.3527,"ARG_OF_PERICENTER":199.523,"MEAN_ANOMALY":312.7489,"EPHEMERIS_TYPE":0,"CLASSIFICATION_TYPE":"U","NORAD_CAT_ID":16182,"ELEMENT_SET_NO":999,"REV_AT_EPOCH":9410,"BSTAR":-8.3061831e-5,"MEAN_MOTION_DOT":-2.14e-6,"MEAN_MOTION_DDOT":0}]
